[{"OBJECT_NAME":"COSMOS 2361 [-]","OBJECT_ID":"1998-076A","EPOCH":"2023-04-27T03:51:45.599616","MEAN_MOTION":13.73057497,"ECCENTRICITY":0.0032704,"INCLINATION":82.9342,"RA_OF_ASC_NODE":334.2725,"ARG_OF_PERICENTER":57.8574,"MEAN_ANOMALY":60.926,"EPHEMERIS_TYPE":0,"CLASSIFICATION_TYPE":"U","NORAD_CAT_ID":25590,"ELEMENT_SET_NO":999,"REV_AT_EPOCH":21958,"BSTAR":5.7776e-5,"MEAN_MOTION_DOT":6.9e-7,"MEAN_MOTION_DDOT":0},{"OBJECT_NAME":"COSMOS 2378 [-]","OBJECT_ID":"2001-023A","EPOCH":"2023-04-27T05:08:16.785024","MEAN_MOTION":13.73999556,"ECCENTRICITY":0.0033129,"INCLINATION":82.9299,"RA_OF_ASC_NODE":351.6959,"ARG_OF_PERICENTER":3.9157,"MEAN_ANOMALY":114.7452,"EPHEMERIS_TYPE":0,"CLASSIFICATION_TYPE":"U","NORAD_CAT_ID":26818,"ELEMENT_SET_NO":999,"REV_AT_EPOCH":9739,"BSTAR":5.4821e-5,"MEAN_MOTION_DOT":6.7e-7,"MEAN_MOTION_DDOT":0},{"OBJECT_NAME":"COSMOS 2398 [-]","OBJECT_ID":"2003-023A","EPOCH":"2023-04-26T15:52:36.998112","MEAN_MOTION":13.72242372,"ECCENTRICITY":0.0030041,"INCLINATION":82.9467,"RA_OF_ASC_NODE":260.8284,"ARG_OF_PERICENTER":261.641,"MEAN_ANOMALY":108.6448,"EPHEMERIS_TYPE":0,"CLASSIFICATION_TYPE":"U","NORAD_CAT_ID":27818,"ELEMENT_SET_NO":999,"REV_AT_EPOCH":99634,"BSTAR":8.7247e-5,"MEAN_MOTION_DOT":9.4e-7,"MEAN_MOTION_DDOT":0},{"OBJECT_NAME":"COSMOS 2407 [+]","OBJECT_ID":"2004-028A","EPOCH":"2023-04-27T04:27:25.509024","MEAN_MOTION":13.76150211,"ECCENTRICITY":0.0038454,"INCLINATION":82.9639,"RA_OF_ASC_NODE":204.1482,"ARG_OF_PERICENTER":218.4043,"MEAN_ANOMALY":206.2919,"EPHEMERIS_TYPE":0,"CLASSIFICATION_TYPE":"U","NORAD_CAT_ID":28380,"ELEMENT_SET_NO":999,"REV_AT_EPOCH":94230,"BSTAR":7.3524e-5,"MEAN_MOTION_DOT":8.7e-7,"MEAN_MOTION_DDOT":0},{"OBJECT_NAME":"COSMOS 2429 [-]","OBJECT_ID":"2007-038A","EPOCH":"2023-04-26T20:45:07.826688","MEAN_MOTION":13.74995494,"ECCENTRICITY":0.0037978,"INCLINATION":82.9801,"RA_OF_ASC_NODE":331.3961,"ARG_OF_PERICENTER":197.3144,"MEAN_ANOMALY":162.672,"EPHEMERIS_TYPE":0,"CLASSIFICATION_TYPE":"U","NORAD_CAT_ID":32052,"ELEMENT_SET_NO":999,"REV_AT_EPOCH":78397,"BSTAR":5.3611e-5,"MEAN_MOTION_DOT":6.7e-7,"MEAN_MOTION_DDOT":0},{"OBJECT_NAME":"COSMOS 2463 [+]","OBJECT_ID":"2010-017A","EPOCH":"2023-04-26T16:40:22.948320","MEAN_MOTION":13.71505488,"ECCENTRICITY":0.0037582,"INCLINATION":82.9646,"RA_OF_ASC_NODE":12.7306,"ARG_OF_PERICENTER":74.4552,"MEAN_ANOMALY":315.0187,"EPHEMERIS_TYPE":0,"CLASSIFICATION_TYPE":"U","NORAD_CAT_ID":36519,"ELEMENT_SET_NO":999,"REV_AT_EPOCH":65063,"BSTAR":6.956e-5,"MEAN_MOTION_DOT":7.8e-7,"MEAN_MOTION_DDOT":0}]
