COSMOS 2407             
1 28380U 04028A   23117.18571191  .00000087  00000+0  73524-4 0  9991
2 28380  82.9639 204.1482 0038454 218.4043 206.2919 13.76150211942301
COSMOS 2463             
1 36519U 10017A   23116.69471005  .00000078  00000+0  69560-4 0  9992
2 36519  82.9646  12.7306 0037582  74.4552 315.0187 13.71505488650639
COSMOS 2361 [-]         
1 25590U 98076A   23117.16094444  .00000069  00000+0  57776-4 0  9997
2 25590  82.9342 334.2725 0032704  57.8574  60.9260 13.73057497219583
COSMOS 2378 [-]         
1 26818U 01023A   23117.21408316  .00000067  00000+0  54821-4 0  9996
2 26818  82.9299 351.6959 0033129   3.9157 114.7452 13.73999556 97396
COSMOS 2398 [-]         
1 27818U 03023A   23116.66153933  .00000094  00000+0  87247-4 0  9997
2 27818  82.9467 260.8284 0030041 261.6410 108.6448 13.72242372996347
COSMOS 2429 [-]         
1 32052U 07038A   23116.86467392  .00000067  00000+0  53611-4 0  9990
2 32052  82.9801 331.3961 0037978 197.3144 162.6720 13.74995494783974
